HAWK-2A                 
1 47505U 21006CW  26068.67946547  .00008113  00000+0  25431-3 0  9990
2 47505  97.2459 115.6184 0006450 187.1463 172.9689 15.33304498284242
STARLINK-32849          
1 62872U 25022U   26068.54508361  .00019327  00000+0  66321-3 0  9992
2 62872  53.1580 130.6007 0001300  92.1741 267.9408 15.30188738 61876
